{
"type": "FeatureCollection",
"name": "sumbersari_admin",
"crs": { "type": "name", "properties": { "name": "urn:ogc:def:crs:EPSG::9518" } },
"features": [
{ "type": "Feature", "properties": { "NAMOBJ": "Sumbersari", "FCODE": "BA03070040", "REMARK": null, "METADATA": "TASWIL1000020221227_DATA_BATAS_DESAKELURAHAN", "SRS_ID": "SRGI 2013", "KDBBPS": null, "KDCBPS": null, "KDCPUM": "35.09.21", "KDEBPS": null, "KDEPUM": null, "KDPBPS": null, "KDPKAB": "35.09", "KDPPUM": "35", "LUASWH": null, "TIPADM": 3, "WADMKC": "Sumbersari", "WADMKD": null, "WADMKK": "Jember", "WADMPR": "Jawa Timur", "WIADKC": null, "WIADKK": null, "WIADPR": null, "WIADKD": null, "UUPP": null, "luas": null, "SHAPE_Length": 0.3794940017120505, "SHAPE_Area": 0.0029518716069951243 }, "geometry": { "type": "MultiPolygon", "coordinates": [ [ [ [ 113.688723343000106, -8.214364604999957 ], [ 113.688538933000018, -8.214477629999976 ], [ 113.688425909000102, -8.214596603999951 ], [ 113.688277194000079, -8.214662036999925 ], [ 113.688199860000054, -8.214751267999929 ], [ 113.688068991000023, -8.214965418999952 ], [ 113.687926222000101, -8.215143879999971 ], [ 113.687771557000019, -8.215292593999948 ], [ 113.687688276000017, -8.215441311999939 ], [ 113.68759904500007, -8.215863665999962 ], [ 113.687438434000114, -8.216303866999965 ], [ 113.687224282000102, -8.216648887999952 ], [ 113.687033924000048, -8.216851141999939 ], [ 113.686891158000094, -8.216922525999962 ], [ 113.6868542200001, -8.216944178999938 ], [ 113.68668312300008, -8.21695288899997 ], [ 113.686555227000099, -8.216946939999957 ], [ 113.686415432000103, -8.216964785999949 ], [ 113.68630835600004, -8.21700345499994 ], [ 113.686257795000074, -8.217027247999965 ], [ 113.686239949000083, -8.217039143999955 ], [ 113.68613287300002, -8.217095658999938 ], [ 113.686064462000104, -8.21721165699995 ], [ 113.685911539000017, -8.21749201199998 ], [ 113.685955467000099, -8.217534058999945 ], [ 113.68582, -8.21756 ], [ 113.68553, -8.21754 ], [ 113.6852, -8.21751 ], [ 113.684279999000069, -8.2174 ], [ 113.68394, -8.217260000999943 ], [ 113.683720001000097, -8.21711 ], [ 113.68365, -8.21706 ], [ 113.68369, -8.216899998999963 ], [ 113.68370583, -8.216841425999974 ], [ 113.683565922000071, -8.216745284999945 ], [ 113.68346241800009, -8.216677470999969 ], [ 113.683287526000072, -8.216591811999933 ], [ 113.683105497000042, -8.21654897999997 ], [ 113.682952023000098, -8.216456179999966 ], [ 113.682852086000025, -8.216274150999936 ], [ 113.682748578000087, -8.216174214999967 ], [ 113.682627226000022, -8.216206337999949 ], [ 113.68239166, -8.216120676999935 ], [ 113.682184647000099, -8.215999325999974 ], [ 113.682020464000061, -8.216027876999931 ], [ 113.681891972000017, -8.216138523999973 ], [ 113.681770620000066, -8.216184921999968 ], [ 113.681606437000028, -8.216238461999978 ], [ 113.68138147500008, -8.216330144999972 ], [ 113.68121236200011, -8.216322984999977 ], [ 113.681071058000043, -8.216188492999947 ], [ 113.680971121000084, -8.216092123999942 ], [ 113.680803370000035, -8.21606356999996 ], [ 113.680574941000032, -8.216006463999975 ], [ 113.680389342000012, -8.215920800999982 ], [ 113.680171622000103, -8.215720927999939 ], [ 113.679825411000024, -8.215463946999932 ], [ 113.679650100000117, -8.215108529999952 ], [ 113.679761165000059, -8.21498924399998 ], [ 113.679932486000098, -8.21483933899998 ], [ 113.680139499, -8.214750107999976 ], [ 113.680285836000053, -8.214589493999938 ], [ 113.680349442000079, -8.214437112999974 ], [ 113.680677564, -8.214454025999942 ], [ 113.681381885000064, -8.214449267999953 ], [ 113.681967233000023, -8.214454025999942 ], [ 113.682495472000028, -8.21445878399993 ], [ 113.683090338000056, -8.214425471999959 ], [ 113.683285454000043, -8.214358847999961 ], [ 113.68372803200009, -8.214339811999935 ], [ 113.684208684000055, -8.214296981999951 ], [ 113.684560001000023, -8.214209998999934 ], [ 113.68475, -8.214169998999978 ], [ 113.685300001000087, -8.214120000999969 ], [ 113.68605, -8.214109998999959 ], [ 113.6872, -8.21399 ], [ 113.687310001000014, -8.21398 ], [ 113.6874, -8.21397 ], [ 113.68766000100004, -8.21396 ], [ 113.68792, -8.21389 ], [ 113.68835, -8.213699998999971 ], [ 113.688760000000116, -8.21353 ], [ 113.689260001000093, -8.213389998999958 ], [ 113.69022, -8.21316 ], [ 113.690760001000058, -8.21303 ], [ 113.69163, -8.21279 ], [ 113.69191000100011, -8.21264999899995 ], [ 113.692, -8.212560000999929 ], [ 113.69206642100005, -8.212506863999977 ], [ 113.692084331000046, -8.212563351999961 ], [ 113.692155714000023, -8.212791781999954 ], [ 113.69216209800004, -8.213031144999945 ], [ 113.691977255000097, -8.213198668999951 ], [ 113.691673874000116, -8.213359282999932 ], [ 113.691388338000024, -8.213377127999934 ], [ 113.691138496, -8.213377127999934 ], [ 113.690805370000021, -8.213466358999938 ], [ 113.690478194000093, -8.213573434999944 ], [ 113.690317580000055, -8.21369240599995 ], [ 113.690121275000024, -8.213924403999954 ], [ 113.689913072000081, -8.214001737999979 ], [ 113.689603742000031, -8.214019581999935 ], [ 113.689312258000086, -8.214108812999939 ], [ 113.689068363000047, -8.21430511899996 ], [ 113.688913700000057, -8.214334860999941 ], [ 113.688723343000106, -8.214364604999957 ] ] ], [ [ [ 113.7416300000001, -8.13658000099997 ], [ 113.74178, -8.13675 ], [ 113.74207, -8.13673 ], [ 113.742480000000114, -8.13655 ], [ 113.74287, -8.136660000999939 ], [ 113.74318, -8.137 ], [ 113.743340235, -8.137342726999975 ], [ 113.74334366000005, -8.137352845999942 ], [ 113.743394757000033, -8.137459340999953 ], [ 113.74354, -8.137770000999978 ], [ 113.743585243000098, -8.137787160999949 ], [ 113.74380170500001, -8.137937739999927 ], [ 113.743811224000069, -8.138056712999969 ], [ 113.743892125000116, -8.138104302999977 ], [ 113.743868331000044, -8.138404113999968 ], [ 113.743930197000054, -8.138446944999941 ], [ 113.744329947000097, -8.138465980999968 ], [ 113.744610723000051, -8.138589712999931 ], [ 113.745153240000036, -8.138960908999934 ], [ 113.745719552000082, -8.139460596999982 ], [ 113.746357247000105, -8.14005070199994 ], [ 113.746871209, -8.140540869999938 ], [ 113.747275719000072, -8.140907307999953 ], [ 113.747337585000082, -8.140988208999943 ], [ 113.747592188000112, -8.140895409999928 ], [ 113.747756370000047, -8.140881132999937 ], [ 113.747834891000025, -8.14080974999996 ], [ 113.747984799000051, -8.140588460999936 ], [ 113.748217450000084, -8.140372180999975 ], [ 113.748290000000111, -8.14041 ], [ 113.74835, -8.140440000999945 ], [ 113.74908, -8.14077 ], [ 113.749758679000024, -8.141101963999972 ], [ 113.749906166000073, -8.141237007999962 ], [ 113.749949949000097, -8.141330282999945 ], [ 113.7499556570001, -8.141410229999963 ], [ 113.749930913000071, -8.14148066499996 ], [ 113.749930913000071, -8.141520637999974 ], [ 113.749913780000043, -8.141674825999928 ], [ 113.749940430000038, -8.14172432099997 ], [ 113.750031801000091, -8.141789040999981 ], [ 113.750201219000019, -8.141878507999934 ], [ 113.750321145000044, -8.141926099999978 ], [ 113.750515306000011, -8.142000336999956 ], [ 113.75062571400008, -8.142055539999944 ], [ 113.751076860000012, -8.14224018699997 ], [ 113.75144234600009, -8.142386760999955 ], [ 113.752217098000074, -8.142676104999964 ], [ 113.752394001000084, -8.142682 ], [ 113.752709884000069, -8.14280649799997 ], [ 113.752795545000026, -8.142849327999954 ], [ 113.753134619000093, -8.14276366799993 ], [ 113.753352446, -8.142837856999961 ], [ 113.754048245000035, -8.142332789999955 ], [ 113.754945316000089, -8.14275394799995 ], [ 113.754973771000095, -8.142800198999964 ], [ 113.754967822000026, -8.142874556999971 ], [ 113.755063001000053, -8.14291917099996 ], [ 113.755437765000011, -8.14307978599993 ], [ 113.756023708000043, -8.143365321999966 ], [ 113.756193245000077, -8.143409935999955 ], [ 113.757002856000099, -8.143671080999979 ], [ 113.757554891000041, -8.143847161999929 ], [ 113.758235417000037, -8.144018482999968 ], [ 113.758306802000106, -8.144032761999938 ], [ 113.758796970000049, -8.144146974999956 ], [ 113.759460344000104, -8.145426875999931 ], [ 113.759933261000015, -8.145400106999944 ], [ 113.759954083000025, -8.14560533599996 ], [ 113.76001356800009, -8.145751076999943 ], [ 113.76007305600001, -8.145822460999966 ], [ 113.760061158000099, -8.145878972999981 ], [ 113.759897570000021, -8.146277532999932 ], [ 113.759739931000013, -8.14661065699994 ], [ 113.759570394000093, -8.146890244999952 ], [ 113.75946754600011, -8.147222296999928 ], [ 113.760058184000059, -8.147488084999964 ], [ 113.760254488000101, -8.147574338999959 ], [ 113.760587614000087, -8.147642748999942 ], [ 113.760911816000089, -8.147693311999944 ], [ 113.76129, -8.14792 ], [ 113.76127, -8.148010001999978 ], [ 113.761297192000029, -8.148037192999936 ], [ 113.761344782000037, -8.148084780999966 ], [ 113.761482497000088, -8.148071988999959 ], [ 113.761583623000092, -8.148143372999925 ], [ 113.761619315000075, -8.148238552999942 ], [ 113.761604669, -8.148365253999941 ], [ 113.761559827000042, -8.148458653999967 ], [ 113.761506290000057, -8.148541932999933 ], [ 113.761357573000055, -8.148654957999952 ], [ 113.761020834000078, -8.148840756999959 ], [ 113.761024448000057, -8.148732288999952 ], [ 113.761012552000011, -8.148589521999952 ], [ 113.760959015000026, -8.148422958999959 ], [ 113.76088763000007, -8.148315882999952 ], [ 113.760804349000068, -8.148268293999934 ], [ 113.760619941000073, -8.148232603999929 ], [ 113.760381995000103, -8.14820285899998 ], [ 113.760352252000075, -8.148238552999942 ], [ 113.76029, -8.14846 ], [ 113.760263022000117, -8.148666855999977 ], [ 113.760263022000117, -8.148815569999954 ], [ 113.760257073000048, -8.148964286999956 ], [ 113.76023327900009, -8.14908326099993 ], [ 113.760132152000097, -8.149118951999981 ], [ 113.760007231000031, -8.149113002999968 ], [ 113.759894207000116, -8.149136797999972 ], [ 113.759822821000057, -8.149231975999953 ], [ 113.759656259000053, -8.149321205999968 ], [ 113.759590824000043, -8.149398539999936 ], [ 113.759632464000106, -8.14946992199998 ], [ 113.759790507000048, -8.149581981999972 ], [ 113.759834719000082, -8.149666227999944 ], [ 113.759894207000116, -8.149773302999961 ], [ 113.759749998000075, -8.14991607099995 ], [ 113.759465904000081, -8.150046943999939 ], [ 113.759222006000073, -8.150148069999943 ], [ 113.759049498000081, -8.150207554999952 ], [ 113.758799652000107, -8.15012427399995 ], [ 113.758732839000118, -8.150119136999933 ], [ 113.75876, -8.150250000999961 ], [ 113.75823, -8.15014 ], [ 113.758150000000114, -8.15022 ], [ 113.757930000000101, -8.1505 ], [ 113.757710001000078, -8.1506 ], [ 113.757430000000113, -8.150640000999942 ], [ 113.757099999000047, -8.150640000999942 ], [ 113.756890001000102, -8.15061 ], [ 113.756620000000112, -8.150680000999955 ], [ 113.75649, -8.15084 ], [ 113.75643, -8.15127 ], [ 113.75638, -8.15151 ], [ 113.75629, -8.15156000199994 ], [ 113.756130001000088, -8.151520001999927 ], [ 113.75602, -8.15141 ], [ 113.755889999000033, -8.15122 ], [ 113.755826491000107, -8.151167697999938 ], [ 113.755712301000017, -8.150963033999972 ], [ 113.755539793000025, -8.150921392999976 ], [ 113.755379178000112, -8.150903549999953 ], [ 113.755147181000098, -8.15089760099994 ], [ 113.75498656700006, -8.150957084999959 ], [ 113.755016310000087, -8.151165287999959 ], [ 113.755099592000079, -8.151331852999931 ], [ 113.755128153000101, -8.151708637999945 ], [ 113.75503, -8.151939998999978 ], [ 113.75495, -8.15207 ], [ 113.75485, -8.15211 ], [ 113.75467, -8.15206 ], [ 113.754525412000021, -8.151926535999962 ], [ 113.754494001000012, -8.151851206999936 ], [ 113.754373857000019, -8.151653077999981 ], [ 113.754278678000105, -8.151480566999965 ], [ 113.754094269, -8.151397284999973 ], [ 113.753886066000064, -8.151427030999969 ], [ 113.753778990000114, -8.151534106999975 ], [ 113.753713556000093, -8.151754206999954 ], [ 113.75387, -8.151930001999972 ], [ 113.75382, -8.15209 ], [ 113.75378, -8.15268 ], [ 113.753768822000097, -8.152721917999941 ], [ 113.753535096000064, -8.152795219999973 ], [ 113.753303100000039, -8.153015320999941 ], [ 113.753100844000073, -8.153241369999932 ], [ 113.753047306000099, -8.153419826999937 ], [ 113.753041357000029, -8.15365182599993 ], [ 113.753118690000065, -8.15392546299995 ], [ 113.753243612, -8.154074179999952 ], [ 113.753445866000106, -8.15421099799994 ], [ 113.753445866000106, -8.154288331999965 ], [ 113.753422073000024, -8.154437046999931 ], [ 113.753285253000058, -8.154567916999952 ], [ 113.753094897000096, -8.154669043999945 ], [ 113.752791514000023, -8.154752325999937 ], [ 113.752291827000022, -8.154865349999966 ], [ 113.751958703000014, -8.154895092999936 ], [ 113.751148792000095, -8.15541899599998 ], [ 113.750863259000084, -8.155579610999951 ], [ 113.750536687000022, -8.155699156999958 ], [ 113.750351088000116, -8.155749125999932 ], [ 113.750072693000106, -8.155834786999947 ], [ 113.749951339000063, -8.155791957999952 ], [ 113.749829987000112, -8.155649188999973 ], [ 113.749680081000065, -8.155470729999934 ], [ 113.749480207000033, -8.155449313999952 ], [ 113.749223223000058, -8.155649188999973 ], [ 113.748973381000042, -8.155741988999978 ], [ 113.748823475000108, -8.155727713999966 ], [ 113.748673570000051, -8.155520699999954 ], [ 113.748587908000104, -8.155485005999935 ], [ 113.748385654000117, -8.156825832999971 ], [ 113.748314271000027, -8.157459363999976 ], [ 113.748145328000078, -8.158133345999943 ], [ 113.748088221000103, -8.158740110999929 ], [ 113.74805966800011, -8.159439672999952 ], [ 113.747959731000037, -8.15951105399995 ], [ 113.747759857, -8.159653823999975 ], [ 113.747631365000075, -8.160274860999948 ], [ 113.747367245000078, -8.160988699999962 ], [ 113.747310138000103, -8.161245680999968 ], [ 113.747046017000116, -8.162145116999966 ], [ 113.74672479000003, -8.163137352999968 ], [ 113.74661057600008, -8.16300886199997 ], [ 113.746396425000057, -8.162958892999939 ], [ 113.74612516600007, -8.163044554999942 ], [ 113.745989537000014, -8.163180182999952 ], [ 113.745732555000018, -8.163165905999961 ], [ 113.745725416000028, -8.163337226999943 ], [ 113.745711141000015, -8.163487132999933 ], [ 113.745811077000099, -8.163558516999956 ], [ 113.745668310000042, -8.163879744999974 ], [ 113.745625478000079, -8.164043927999955 ], [ 113.745704002000025, -8.164158141999962 ], [ 113.745554097000081, -8.164472229999944 ], [ 113.745475573000022, -8.164586444999941 ], [ 113.745445830000108, -8.164667345999931 ], [ 113.745362549000106, -8.164899343999934 ], [ 113.745080583000117, -8.165742861999945 ], [ 113.744878329000016, -8.166331778999961 ], [ 113.744771253000067, -8.166438854999967 ], [ 113.74461658700011, -8.167134846999943 ], [ 113.744485717000089, -8.167289511999968 ], [ 113.744450026000095, -8.16743822799998 ], [ 113.744586844000082, -8.167485817999932 ], [ 113.744711765000034, -8.167563150999968 ], [ 113.744777913, -8.167581427999949 ], [ 113.745284423000044, -8.167721383999947 ], [ 113.745593753000094, -8.167797526999948 ], [ 113.745660378000025, -8.167583374999936 ], [ 113.746012539000048, -8.167645241999935 ], [ 113.746107716000097, -8.167635723999979 ], [ 113.746141029000114, -8.167497714999968 ], [ 113.747021429000029, -8.167669037999929 ], [ 113.748401517000048, -8.167973606999965 ], [ 113.749115355000072, -8.168163963999973 ], [ 113.749505587000044, -8.167830839999965 ], [ 113.749844816000063, -8.167430488999969 ], [ 113.750113945000066, -8.167438327999946 ], [ 113.750344469000083, -8.167638498999963 ], [ 113.750542247000112, -8.167711965999956 ], [ 113.750375688000076, -8.168178934999958 ], [ 113.750914041000101, -8.168321702999947 ], [ 113.75114975300005, -8.168341345999977 ], [ 113.75134007500003, -8.16839394699997 ], [ 113.751390001000118, -8.16881 ], [ 113.75146, -8.16938 ], [ 113.75146, -8.16983000099998 ], [ 113.75146, -8.170340001999932 ], [ 113.751310000000103, -8.17057000099993 ], [ 113.751220000000103, -8.1707 ], [ 113.751020001000029, -8.17124999899994 ], [ 113.750810115000036, -8.171887427999934 ], [ 113.75075, -8.17207 ], [ 113.75046, -8.17296 ], [ 113.75035, -8.17328 ], [ 113.750352512000063, -8.17334406599997 ], [ 113.75037, -8.173790001999976 ], [ 113.75038513800007, -8.174007975999928 ], [ 113.75042, -8.174510000999931 ], [ 113.75043821700001, -8.174828802999969 ], [ 113.75046, -8.17521 ], [ 113.750540000000115, -8.17580000199996 ], [ 113.75060669100003, -8.176102672999946 ], [ 113.750670001000117, -8.17639 ], [ 113.750690228000053, -8.176445627999954 ], [ 113.75075, -8.17661 ], [ 113.7510150170001, -8.177140035999969 ], [ 113.751040001000092, -8.17719 ], [ 113.751400000000103, -8.177690000999974 ], [ 113.751980000000117, -8.17837 ], [ 113.75247, -8.178940001999933 ], [ 113.75287, -8.17946 ], [ 113.75321, -8.17987 ], [ 113.75348, -8.18024 ], [ 113.75358, -8.180480001999967 ], [ 113.753595584000095, -8.180534544999944 ], [ 113.75362, -8.18062 ], [ 113.75368, -8.18084 ], [ 113.75353, -8.18107 ], [ 113.7533, -8.1817 ], [ 113.75327, -8.18191 ], [ 113.75314, -8.18254 ], [ 113.75327, -8.18281 ], [ 113.75345, -8.183210001999953 ], [ 113.753460001, -8.183600001999935 ], [ 113.753394602000071, -8.184207264999941 ], [ 113.75339, -8.18425 ], [ 113.75331, -8.184810001999949 ], [ 113.75328, -8.18524999899995 ], [ 113.75328, -8.18541 ], [ 113.75326, -8.18595 ], [ 113.75331, -8.18601 ], [ 113.75332000100002, -8.18621 ], [ 113.753340001000083, -8.186720001999959 ], [ 113.75335, -8.18716 ], [ 113.753360001000033, -8.187460000999977 ], [ 113.75349, -8.18804 ], [ 113.75348, -8.18815 ], [ 113.753400314000032, -8.189230170999963 ], [ 113.75339, -8.189370000999929 ], [ 113.753400001000045, -8.189619998999945 ], [ 113.753404318000094, -8.189676132999978 ], [ 113.753420001000109, -8.189880001999938 ], [ 113.75352, -8.19057 ], [ 113.75364, -8.1913 ], [ 113.753672915000038, -8.191513948999955 ], [ 113.75372, -8.19182 ], [ 113.75376, -8.192140000999927 ], [ 113.753770001000021, -8.19243 ], [ 113.753879998000116, -8.192639998999937 ], [ 113.753750597000021, -8.192659907999939 ], [ 113.75375, -8.192659998999943 ], [ 113.75362, -8.19278 ], [ 113.75337, -8.19314 ], [ 113.753290000000106, -8.193310000999929 ], [ 113.75315, -8.193780000999936 ], [ 113.75309, -8.19388 ], [ 113.75246, -8.19403 ], [ 113.75182, -8.1943 ], [ 113.7515, -8.194440000999975 ], [ 113.75124, -8.194560000999957 ], [ 113.75098, -8.19471 ], [ 113.75056582600007, -8.195193202999974 ], [ 113.75038, -8.195409998999935 ], [ 113.7502, -8.195730000999959 ], [ 113.750034763000031, -8.196019163999949 ], [ 113.750000000000114, -8.196080000999928 ], [ 113.74995, -8.19615 ], [ 113.74983, -8.19639 ], [ 113.74961, -8.19689 ], [ 113.74893, -8.19767 ], [ 113.74871, -8.19802 ], [ 113.74866, -8.1981 ], [ 113.74861, -8.19814 ], [ 113.74818, -8.19837 ], [ 113.74757000000011, -8.19869 ], [ 113.747300601, -8.198914498999955 ], [ 113.74727, -8.19894 ], [ 113.747210000000109, -8.19907 ], [ 113.747210000000109, -8.199260000999971 ], [ 113.747190016000104, -8.199439852999944 ], [ 113.74719, -8.19944 ], [ 113.74717, -8.19973 ], [ 113.74696, -8.199980000999972 ], [ 113.74644, -8.20054 ], [ 113.74599, -8.201090000999955 ], [ 113.74591, -8.20118 ], [ 113.74552, -8.20163 ], [ 113.745339999000066, -8.20174 ], [ 113.74515, -8.20178 ], [ 113.74484, -8.20174 ], [ 113.744727658000102, -8.201686504999941 ], [ 113.74463, -8.20164000099993 ], [ 113.74432, -8.201500000999943 ], [ 113.744149999000115, -8.20149 ], [ 113.74404, -8.20155 ], [ 113.74393, -8.2017 ], [ 113.74371, -8.20213 ], [ 113.74369, -8.202320000999975 ], [ 113.74377, -8.202670000999944 ], [ 113.744010000000117, -8.20339 ], [ 113.744105447000038, -8.203585044999954 ], [ 113.744240000000104, -8.203860000999953 ], [ 113.74441, -8.20417 ], [ 113.74489, -8.204780000999961 ], [ 113.74553, -8.20549 ], [ 113.745590000000107, -8.20569 ], [ 113.74553, -8.205830000999981 ], [ 113.7454, -8.20596 ], [ 113.745230000000106, -8.20601 ], [ 113.74481, -8.20611 ], [ 113.744599999000116, -8.20616 ], [ 113.744209999000077, -8.20621 ], [ 113.74381, -8.20627 ], [ 113.7435, -8.20641 ], [ 113.74291, -8.206730000999926 ], [ 113.7427, -8.20679 ], [ 113.74237, -8.20683 ], [ 113.74193, -8.20682 ], [ 113.74123, -8.20677 ], [ 113.74102, -8.20666 ], [ 113.740732300000104, -8.206505725999932 ], [ 113.74033, -8.20629 ], [ 113.74015, -8.20631 ], [ 113.739979118000065, -8.206373288999941 ], [ 113.739879999000095, -8.20641 ], [ 113.739059999, -8.206750000999932 ], [ 113.73806, -8.20718 ], [ 113.73781, -8.2074 ], [ 113.73706, -8.208170000999928 ], [ 113.7367, -8.208560000999967 ], [ 113.736507582000058, -8.208745857999929 ], [ 113.736375425, -8.209051618999979 ], [ 113.736361147000025, -8.209155124999938 ], [ 113.736361147000025, -8.209333585999957 ], [ 113.736332595000022, -8.20950133599996 ], [ 113.736189827000089, -8.209868962999963 ], [ 113.736079183000015, -8.20998674599997 ], [ 113.735879308000108, -8.210161635999953 ], [ 113.735683002000087, -8.210390064999956 ], [ 113.735497403000068, -8.210779106999951 ], [ 113.735440297000082, -8.211011104999955 ], [ 113.735483128000055, -8.211271654999962 ], [ 113.735515251000038, -8.211853433999977 ], [ 113.735329652000019, -8.212199644999941 ], [ 113.735058394000021, -8.212442349999947 ], [ 113.734833535, -8.212545856999952 ], [ 113.73456227600002, -8.212531579999961 ], [ 113.734233911000047, -8.212381673999971 ], [ 113.733591456000113, -8.212003339999967 ], [ 113.733316628000011, -8.211796326999945 ], [ 113.733141738000086, -8.211482237999974 ], [ 113.732941863000065, -8.211078918999931 ], [ 113.732777680000027, -8.210629200999961 ], [ 113.73259374700001, -8.210460415999933 ], [ 113.73193, -8.21019 ], [ 113.73166, -8.21011 ], [ 113.73135, -8.21011 ], [ 113.731090000000108, -8.210160000999963 ], [ 113.731275051000011, -8.210022437999953 ], [ 113.731464217000052, -8.209940346999929 ], [ 113.731528345000015, -8.209952789999932 ], [ 113.731591600000115, -8.209918309999978 ], [ 113.731729607000034, -8.209723194999981 ], [ 113.731891413000085, -8.209304409999959 ], [ 113.731958037000027, -8.209004596999932 ], [ 113.732081768000057, -8.208880865999959 ], [ 113.732148394000092, -8.208738099999948 ], [ 113.732176947000085, -8.208590570999945 ], [ 113.732230394000112, -8.20835984799993 ], [ 113.732232149000083, -8.208352268999931 ], [ 113.732241724, -8.208303036999951 ], [ 113.732273793000104, -8.208138116999976 ], [ 113.732244048000098, -8.208090526999968 ], [ 113.73173246500005, -8.207989399999974 ], [ 113.731458826000107, -8.207929913999976 ], [ 113.73105431700003, -8.207882324999957 ], [ 113.730715244000066, -8.207793095999932 ], [ 113.730590323000115, -8.207751452999958 ], [ 113.73004899700004, -8.207733608999945 ], [ 113.729971663000015, -8.207662223999932 ], [ 113.72985269000003, -8.207656274999977 ], [ 113.729698025000062, -8.207584893999979 ], [ 113.7294422330001, -8.207596790999958 ], [ 113.729091262000111, -8.207531352999979 ], [ 113.728924700000107, -8.20747186899996 ], [ 113.728924700000107, -8.207186332999981 ], [ 113.728395270000078, -8.207346945999973 ], [ 113.72810378600002, -8.207400483999947 ], [ 113.727514869000061, -8.207352894999929 ], [ 113.726253755000016, -8.207233920999954 ], [ 113.72474279700009, -8.207108998999956 ], [ 113.724159829000087, -8.207013819999929 ], [ 113.723576861000083, -8.206936489999975 ], [ 113.72336271000006, -8.206942438999931 ], [ 113.723208045000092, -8.207013819999929 ], [ 113.722892766000086, -8.207216074999963 ], [ 113.722512053000059, -8.207525405999945 ], [ 113.722190110000042, -8.20777901799994 ], [ 113.721910244000014, -8.207899417999954 ], [ 113.721536797000113, -8.207938911999975 ], [ 113.721036787000116, -8.208001298999932 ], [ 113.720715560000031, -8.208036989999925 ], [ 113.720424075000096, -8.208120271999974 ], [ 113.720007670000086, -8.20843555099998 ], [ 113.719555572000104, -8.208798416999969 ], [ 113.718889323000099, -8.209434922999947 ], [ 113.71803531, -8.210252261999926 ], [ 113.717705543000079, -8.210232042999962 ], [ 113.716801346000011, -8.210005992999982 ], [ 113.715730589000032, -8.209785892999946 ], [ 113.71505839200006, -8.209726406999948 ], [ 113.714719319000096, -8.210124966999956 ], [ 113.714261270000065, -8.210993471999927 ], [ 113.713945993000038, -8.211659718999954 ], [ 113.71347761800007, -8.212771910999948 ], [ 113.712708675000044, -8.212670989999936 ], [ 113.711792581000054, -8.212528220999957 ], [ 113.711090640000066, -8.212337864999938 ], [ 113.71022808400005, -8.212088021999932 ], [ 113.709918755000103, -8.212016636999977 ], [ 113.709436914000094, -8.212010688999953 ], [ 113.708330465000017, -8.212076124999953 ], [ 113.707229964000021, -8.212111815999947 ], [ 113.706855201000053, -8.212093970999945 ], [ 113.706427721000068, -8.212101738999934 ], [ 113.70579478600007, -8.212049389999947 ], [ 113.704595536000056, -8.211782888999949 ], [ 113.703343941000071, -8.211525907999942 ], [ 113.702087584000083, -8.211268927999981 ], [ 113.701483201000087, -8.211045255999977 ], [ 113.70067894400006, -8.210612194999953 ], [ 113.700264917000027, -8.210321900999929 ], [ 113.699912757000106, -8.21011726699993 ], [ 113.699446382000019, -8.210007811999958 ], [ 113.698670678000099, -8.20996022199995 ], [ 113.697937805000038, -8.210012569999947 ], [ 113.697385769000107, -8.210164856999938 ], [ 113.696819457000061, -8.210312383999963 ], [ 113.696177003000116, -8.210436114999936 ], [ 113.695867673000066, -8.21039804399993 ], [ 113.695029545000011, -8.210035425999934 ], [ 113.69535, -8.209569998999939 ], [ 113.69665000100008, -8.20773 ], [ 113.69713, -8.207740000999934 ], [ 113.697490001, -8.207350000999952 ], [ 113.69758, -8.207419998999967 ], [ 113.69839, -8.2073 ], [ 113.69875, -8.207229998999935 ], [ 113.699120000000107, -8.20692 ], [ 113.69927, -8.206719998999972 ], [ 113.69933, -8.20644 ], [ 113.69937, -8.206240000999969 ], [ 113.69949, -8.205919998999946 ], [ 113.69967, -8.20578 ], [ 113.70005, -8.20540000099993 ], [ 113.700590001000023, -8.205150000999936 ], [ 113.700779999000019, -8.20506 ], [ 113.70097, -8.20476999899995 ], [ 113.70101000000011, -8.204680000999929 ], [ 113.701080001000037, -8.20456 ], [ 113.701129999000045, -8.20453 ], [ 113.70122, -8.204479998999943 ], [ 113.701539999000033, -8.204459998999937 ], [ 113.70222, -8.204479998999943 ], [ 113.70247, -8.204390000999979 ], [ 113.70279, -8.2042 ], [ 113.70324000100004, -8.20369 ], [ 113.703489999000112, -8.20348 ], [ 113.703670001000091, -8.20341 ], [ 113.704070000000115, -8.20307 ], [ 113.70432, -8.20289 ], [ 113.704800001000081, -8.20256 ], [ 113.7054, -8.202159998999946 ], [ 113.70598, -8.201890000999981 ], [ 113.70618, -8.20183 ], [ 113.70633, -8.20217 ], [ 113.706480001000045, -8.202360000999931 ], [ 113.7067, -8.20252 ], [ 113.70692, -8.20259 ], [ 113.707160001000034, -8.20261 ], [ 113.707409999000106, -8.20258 ], [ 113.70779, -8.202449998999953 ], [ 113.707920001000048, -8.202329998999971 ], [ 113.70829, -8.201979998999946 ], [ 113.7085, -8.201939998999933 ], [ 113.708700001000011, -8.201979998999946 ], [ 113.708949999000083, -8.20209 ], [ 113.70924, -8.2022 ], [ 113.709560001000114, -8.20223 ], [ 113.710050001000013, -8.202300000999969 ], [ 113.71063, -8.202469998999959 ], [ 113.71104, -8.20254 ], [ 113.71142, -8.202549998999928 ], [ 113.71156, -8.202489998999965 ], [ 113.71176, -8.20229 ], [ 113.711920001000067, -8.201999998999952 ], [ 113.712109999000063, -8.201729998999951 ], [ 113.71221, -8.201219998999932 ], [ 113.71223000100008, -8.20069 ], [ 113.71228, -8.199989998999968 ], [ 113.71224, -8.199300000999926 ], [ 113.71223000100008, -8.19899 ], [ 113.71221, -8.198360000999969 ], [ 113.712180000000103, -8.19714 ], [ 113.71217, -8.196510000999979 ], [ 113.71228, -8.19637 ], [ 113.712330001000055, -8.195770000999971 ], [ 113.71167, -8.195770000999971 ], [ 113.71102, -8.195719998999948 ], [ 113.7105600000001, -8.195679998999935 ], [ 113.7102900000001, -8.195670000999939 ], [ 113.70971, -8.19564 ], [ 113.70951, -8.19562 ], [ 113.708559999000045, -8.19556 ], [ 113.70783, -8.19542 ], [ 113.70771, -8.19539 ], [ 113.70761, -8.195400000999939 ], [ 113.705809999000053, -8.19515 ], [ 113.70431, -8.19525 ], [ 113.70422, -8.195260000999951 ], [ 113.7037, -8.195260000999951 ], [ 113.70323, -8.19514 ], [ 113.7022300000001, -8.19488 ], [ 113.70197, -8.19481 ], [ 113.70197, -8.1944 ], [ 113.70197, -8.19383 ], [ 113.701909999, -8.19318 ], [ 113.701820000000112, -8.192610000999935 ], [ 113.70161, -8.191830000999971 ], [ 113.70012, -8.19172 ], [ 113.69942, -8.19167 ], [ 113.69875, -8.19165 ], [ 113.69816, -8.19169 ], [ 113.69809, -8.1917 ], [ 113.69771, -8.19169 ], [ 113.69755, -8.19168 ], [ 113.69719, -8.19166 ], [ 113.69685, -8.19164 ], [ 113.69636, -8.19167 ], [ 113.69595, -8.19172 ], [ 113.69586, -8.19172 ], [ 113.69532, -8.19172 ], [ 113.695020000000113, -8.19165 ], [ 113.6949, -8.19162 ], [ 113.6941, -8.19143 ], [ 113.69393, -8.19139 ], [ 113.69363, -8.19133 ], [ 113.69354, -8.1913 ], [ 113.6932, -8.19114 ], [ 113.69277000000011, -8.19094 ], [ 113.6926, -8.19087 ], [ 113.69229, -8.19073 ], [ 113.69213, -8.19065 ], [ 113.692410000000109, -8.18997 ], [ 113.69266, -8.18948 ], [ 113.69286000000011, -8.18903 ], [ 113.69315, -8.188340000999972 ], [ 113.69321, -8.188260000999946 ], [ 113.69335, -8.18796 ], [ 113.69362, -8.18723 ], [ 113.69378, -8.18682 ], [ 113.69381, -8.186720000999969 ], [ 113.69366, -8.18652 ], [ 113.69338, -8.18617 ], [ 113.69312, -8.186000000999968 ], [ 113.69302, -8.18585 ], [ 113.69277000000011, -8.185490000999948 ], [ 113.69261, -8.18537 ], [ 113.692320000000109, -8.18492 ], [ 113.69215, -8.18431 ], [ 113.69207, -8.18402 ], [ 113.69257, -8.18369 ], [ 113.692899999000019, -8.18349 ], [ 113.693060001000049, -8.18329 ], [ 113.693100001000062, -8.182860001999927 ], [ 113.69303, -8.182370000999981 ], [ 113.69317, -8.18219 ], [ 113.6934900010001, -8.18205 ], [ 113.693699999000046, -8.18205 ], [ 113.694, -8.18212 ], [ 113.69424, -8.18228 ], [ 113.694479999, -8.18259 ], [ 113.694660001000102, -8.18269 ], [ 113.69481, -8.18269 ], [ 113.69509000100004, -8.18253 ], [ 113.695380000000114, -8.182370000999981 ], [ 113.695520001000091, -8.182350000999975 ], [ 113.69586, -8.182350000999975 ], [ 113.69621, -8.182330000999968 ], [ 113.696469999000101, -8.18225 ], [ 113.696690001000093, -8.18209 ], [ 113.697080001000018, -8.18179 ], [ 113.697450001000107, -8.181280001999937 ], [ 113.697760001, -8.1809 ], [ 113.69808, -8.1806 ], [ 113.698769999000092, -8.18023 ], [ 113.699569999, -8.179600000999926 ], [ 113.699840000000108, -8.17937 ], [ 113.70023, -8.17911 ], [ 113.70103, -8.17876 ], [ 113.701929999000072, -8.17839 ], [ 113.703059999000061, -8.17793 ], [ 113.70391, -8.17764 ], [ 113.704510001000017, -8.17739 ], [ 113.70482000100003, -8.17727 ], [ 113.705210001000069, -8.177010001999975 ], [ 113.70579, -8.17663 ], [ 113.70615, -8.17631 ], [ 113.706440001000033, -8.17564 ], [ 113.706770001000109, -8.17495 ], [ 113.70701, -8.17432 ], [ 113.70705, -8.17399 ], [ 113.7069, -8.17376 ], [ 113.70656, -8.17356 ], [ 113.70615, -8.173360000999935 ], [ 113.705740000000105, -8.17314 ], [ 113.70549, -8.17288 ], [ 113.70536, -8.17259 ], [ 113.705310001000043, -8.17204 ], [ 113.70541, -8.17172 ], [ 113.70559, -8.17158 ], [ 113.705849999000066, -8.17155 ], [ 113.70616, -8.17162 ], [ 113.70651, -8.17173 ], [ 113.706850001000021, -8.171760000999939 ], [ 113.707180001000097, -8.17171 ], [ 113.70751, -8.17148 ], [ 113.70779, -8.1712 ], [ 113.707920001000048, -8.17094 ], [ 113.70788, -8.170650000999956 ], [ 113.70775, -8.17039 ], [ 113.70749, -8.17028000199997 ], [ 113.70719, -8.170300001999976 ], [ 113.70676, -8.170340001999932 ], [ 113.70657, -8.170300001999976 ], [ 113.70633, -8.17011 ], [ 113.706050001000108, -8.16978 ], [ 113.70577, -8.16939 ], [ 113.705660001000069, -8.169150001999981 ], [ 113.705690000000118, -8.16897 ], [ 113.70588, -8.168780001999949 ], [ 113.70631, -8.16861 ], [ 113.706640000000107, -8.168370001999961 ], [ 113.706820000000107, -8.16812 ], [ 113.70693, -8.16773 ], [ 113.70697, -8.16729 ], [ 113.707039999000017, -8.1667 ], [ 113.707200001000047, -8.16627 ], [ 113.70746, -8.16571 ], [ 113.70751, -8.16534 ], [ 113.707450000000108, -8.16492 ], [ 113.70747, -8.16466 ], [ 113.70758, -8.16451 ], [ 113.70777, -8.16432 ], [ 113.708040001000086, -8.16421 ], [ 113.70866, -8.164000000999977 ], [ 113.70931, -8.16373 ], [ 113.709880000000112, -8.16345 ], [ 113.71019, -8.16327 ], [ 113.71048, -8.16294 ], [ 113.71095, -8.16240000099998 ], [ 113.71124, -8.16217 ], [ 113.711730000000102, -8.16194 ], [ 113.71202, -8.16176 ], [ 113.712089999000113, -8.1615 ], [ 113.71212, -8.161210000999972 ], [ 113.71212, -8.160820000999934 ], [ 113.71205, -8.16011 ], [ 113.711940001000016, -8.159340001999965 ], [ 113.711900001000117, -8.15876 ], [ 113.711910000000103, -8.15831 ], [ 113.71196000100008, -8.157720000999973 ], [ 113.71202, -8.15752 ], [ 113.71206999900005, -8.15734 ], [ 113.712180000000103, -8.15708 ], [ 113.712479999000038, -8.15672 ], [ 113.712889999000026, -8.15642 ], [ 113.71314, -8.15635 ], [ 113.71336, -8.15638 ], [ 113.71368, -8.156570001999967 ], [ 113.713870001000032, -8.15671 ], [ 113.71412, -8.15671 ], [ 113.714429999000117, -8.1566 ], [ 113.71462, -8.15641 ], [ 113.71466, -8.156 ], [ 113.714859999000055, -8.15564 ], [ 113.71510000100011, -8.15557 ], [ 113.715330000000108, -8.1556 ], [ 113.71561, -8.155730000999938 ], [ 113.715780001000098, -8.15584 ], [ 113.715989999000044, -8.1558 ], [ 113.716210001000036, -8.15569 ], [ 113.71644, -8.15539 ], [ 113.7166800010001, -8.15488 ], [ 113.71694, -8.15443 ], [ 113.71714, -8.154210000999967 ], [ 113.71753, -8.15398 ], [ 113.718100001000039, -8.15379 ], [ 113.71864, -8.1537 ], [ 113.71914, -8.153450001999943 ], [ 113.71967, -8.15322 ], [ 113.7199, -8.15318 ], [ 113.720210001000055, -8.15319 ], [ 113.72047, -8.15332 ], [ 113.72053, -8.153510001999962 ], [ 113.720440001000043, -8.153780000999973 ], [ 113.720210001000055, -8.15397 ], [ 113.719889999000088, -8.15428 ], [ 113.71981, -8.15449 ], [ 113.71985, -8.15477 ], [ 113.720050001000118, -8.15496 ], [ 113.72049, -8.155090001999952 ], [ 113.720960000000105, -8.155010001999926 ], [ 113.721270000000118, -8.15482 ], [ 113.721650001000057, -8.15438 ], [ 113.72203, -8.15394 ], [ 113.722310000000107, -8.15363 ], [ 113.72237, -8.153430000999947 ], [ 113.722289999000054, -8.15325 ], [ 113.722020001000033, -8.153100001999974 ], [ 113.72181, -8.15303 ], [ 113.72137, -8.15292 ], [ 113.72103, -8.15283 ], [ 113.72079, -8.1526 ], [ 113.72066, -8.152300001999947 ], [ 113.720669999000052, -8.15178 ], [ 113.72075, -8.15129 ], [ 113.72092, -8.15093 ], [ 113.721140000000105, -8.15075 ], [ 113.72137, -8.15073 ], [ 113.72162, -8.15084 ], [ 113.72185, -8.151090001999933 ], [ 113.722220000000107, -8.15168 ], [ 113.722530001000109, -8.15204 ], [ 113.72287, -8.15213 ], [ 113.72327000100006, -8.15209 ], [ 113.72402000000011, -8.151910001999966 ], [ 113.7247, -8.151790000999938 ], [ 113.725180001000012, -8.1517 ], [ 113.72547, -8.151480001999971 ], [ 113.7256, -8.15133 ], [ 113.72556, -8.15118 ], [ 113.725460000000112, -8.15105000099993 ], [ 113.725200001000076, -8.15095 ], [ 113.724810001000037, -8.15088 ], [ 113.724010001000011, -8.15085 ], [ 113.723720001000061, -8.15075 ], [ 113.72361, -8.150660000999949 ], [ 113.72355, -8.15036 ], [ 113.72356, -8.149840000999973 ], [ 113.723600001000023, -8.14937 ], [ 113.72369, -8.149140001999967 ], [ 113.7239, -8.149060000999953 ], [ 113.72423, -8.14909 ], [ 113.72453, -8.149160001999974 ], [ 113.724810001000037, -8.14929 ], [ 113.725010000000111, -8.14938 ], [ 113.72507, -8.14943 ], [ 113.725180001000012, -8.14952 ], [ 113.72534, -8.14971 ], [ 113.72551, -8.14991 ], [ 113.72589, -8.15011 ], [ 113.726209999000048, -8.15016 ], [ 113.72646, -8.15016 ], [ 113.72662, -8.15011 ], [ 113.726760001000116, -8.149920001999931 ], [ 113.726810000000114, -8.14973 ], [ 113.726770000000101, -8.14935 ], [ 113.72665, -8.14895 ], [ 113.72638, -8.14814 ], [ 113.726310001000115, -8.14768 ], [ 113.72634, -8.1473 ], [ 113.72646, -8.14702 ], [ 113.726630000000114, -8.14687 ], [ 113.72687, -8.14675 ], [ 113.727339999000037, -8.14666 ], [ 113.72757, -8.14659 ], [ 113.72784, -8.146410001999925 ], [ 113.72806, -8.14615 ], [ 113.72823, -8.14579 ], [ 113.72837, -8.14532 ], [ 113.72844, -8.14517 ], [ 113.72863, -8.14508 ], [ 113.728770001000044, -8.1451 ], [ 113.72898, -8.145160000999965 ], [ 113.729150000000118, -8.14532 ], [ 113.729329999000015, -8.14556 ], [ 113.72958, -8.14572 ], [ 113.729960001000109, -8.14584 ], [ 113.73042, -8.14585 ], [ 113.730780001000085, -8.14578 ], [ 113.7311, -8.145570000999953 ], [ 113.7312, -8.14541 ], [ 113.7312, -8.14527 ], [ 113.731000000000108, -8.14501 ], [ 113.73069, -8.1446 ], [ 113.73058, -8.14423 ], [ 113.73063, -8.143970000999957 ], [ 113.7308, -8.143660001999933 ], [ 113.73106, -8.14343 ], [ 113.73139, -8.14336 ], [ 113.73159, -8.14348 ], [ 113.73178, -8.14388 ], [ 113.731910001000074, -8.14441 ], [ 113.73205, -8.14464 ], [ 113.7324, -8.14505 ], [ 113.73277, -8.14521 ], [ 113.73305, -8.145280001999936 ], [ 113.73328, -8.145200000999978 ], [ 113.7334, -8.14505 ], [ 113.7334800000001, -8.144790000999933 ], [ 113.7335700000001, -8.14435 ], [ 113.73372, -8.14357 ], [ 113.73389, -8.142820000999961 ], [ 113.734060000000113, -8.14223 ], [ 113.73437, -8.14139 ], [ 113.734660001000066, -8.14043 ], [ 113.734950001000016, -8.139680000999931 ], [ 113.735190000000102, -8.13921 ], [ 113.73533, -8.1391 ], [ 113.735860000000116, -8.1391 ], [ 113.73619, -8.13906 ], [ 113.736349999000026, -8.13895 ], [ 113.73652, -8.13873 ], [ 113.736610001000031, -8.1384 ], [ 113.73669, -8.13791 ], [ 113.736779999000078, -8.13751 ], [ 113.73691, -8.1372 ], [ 113.73709, -8.137010001999954 ], [ 113.73725, -8.13696 ], [ 113.737440000000106, -8.13703000199996 ], [ 113.737820001000046, -8.13735 ], [ 113.73823, -8.13782 ], [ 113.73853, -8.13833 ], [ 113.738709999000093, -8.13848 ], [ 113.738890001000073, -8.13849000099998 ], [ 113.73904, -8.1384 ], [ 113.73911, -8.138220001999969 ], [ 113.73911, -8.137870001999943 ], [ 113.73905, -8.13738000099994 ], [ 113.738950001000035, -8.13687 ], [ 113.738970001000098, -8.13644 ], [ 113.739059999, -8.13611 ], [ 113.73929, -8.13562 ], [ 113.73944, -8.135430000999975 ], [ 113.739859999000032, -8.135120001999951 ], [ 113.7402, -8.13488 ], [ 113.74039, -8.13479 ], [ 113.740500000000111, -8.13476 ], [ 113.7408, -8.13484 ], [ 113.74096, -8.13503 ], [ 113.74112, -8.13542 ], [ 113.7413600000001, -8.13601 ], [ 113.7416300000001, -8.13658000099997 ] ] ] ] } }
]
}
